LANDSAT 9               
1 49260U 21088A   23345.81088955  .00000381  00000+0  94558-4 0  9997
2 49260  98.2121  53.4025 0001239  88.0896 272.0444 14.57099299117253
